SENTINEL-3A             
1 41335U 16011A   26187.29189585  .00000105  00000+0  61512-4 0  9990
2 41335  98.6241 254.4004 0001412  93.1880 266.9462 14.26738105540780
ALOS-2                  
1 39766U 14029A   26186.06187343  .00000552  00000+0  80746-4 0  9992
2 39766  97.9228 282.9699 0001666  89.5658 270.5745 14.79477316654223
KAZEOSAT 2              
1 40010U 14033A   26187.29287634  .00000565  00000+0  71240-4 0  9994
2 40010  97.5397  25.8940 0007066 255.2949 104.7484 14.85491962651795
HODOYOSHI-4             
1 40011U 14033B   26187.26448296  .00002053  00000+0  22745-3 0  9994
2 40011  97.5457  11.1661 0022172 240.7811 119.1189 14.88175294651649
DEIMOS-2                
1 40013U 14033D   26187.27450712  .00001424  00000+0  13950-3 0  9992
2 40013  97.5800  61.0904 0001117  84.5295 275.6053 14.93782569640576
HODOYOSHI-3             
1 40015U 14033F   26186.97927707  .00001061  00000+0  12818-3 0  9992
2 40015  97.6437 349.2655 0031414 293.7561  66.0361 14.85425672650410
SPOT 7                  
1 40053U 14034A   26187.28991211  .00000740  00000+0  16028-3 0  9991
2 40053  98.0614 249.2891 0001508  98.4807 261.6565 14.60976976639922
SKYSAT-B                
1 40072U 14037D   26186.88586376  .00001473  00000+0  16685-3 0  9995
2 40072  98.3847 146.9181 0004793 204.6990 155.3996 14.88076911648749
WORLDVIEW-3 (WV-3)      
1 40115U 14048A   26187.30318530  .00000929  00000+0  11499-3 0  9991
2 40115  97.8560 261.8718 0000584 167.2449 192.8781 14.85054833644743
GAOFEN-2                
1 40118U 14049A   26187.29787390  .00000993  00000+0  13531-3 0  9997
2 40118  98.0096 251.4868 0007599 160.4955 199.6550 14.80922712642061
YAOGAN-21               
1 40143U 14053A   26187.30354914  .00009632  00000+0  36913-3 0  9992
2 40143  97.1461 226.7207 0008773  37.5813 322.6038 15.26680243657874
YAOGAN-22               
1 40275U 14063A   26187.04634810 -.00000023  00000+0  62211-4 0  9993
2 40275 100.7750 338.6346 0006727 144.2970 215.8592 13.15531483562292
ASNARO                  
1 40298U 14070A   26187.25583370  .00007006  00000+0  33059-3 0  9997
2 40298  97.3442 262.8567 0006848 112.4208 247.7753 15.19739649646908
YAOGAN-24               
1 40310U 14072A   26187.33289477  .00000552  00000+0  87592-4 0  9995
2 40310  98.1519 324.8333 0013895 198.4483 161.6224 14.76109886626547
CBERS 4                 
1 40336U 14079A   26187.27491435  .00000164  00000+0  71735-4 0  9993
2 40336  98.3516 243.5072 0001167  51.5801 308.5490 14.35514827606694
YAOGAN-26               
1 40362U 14088A   26187.27097663  .00026074  00000+0  49651-3 0  9996
2 40362  97.0648 187.0421 0003223  19.6981 340.4395 15.48178889640656
SMAP                    
1 40376U 15003A   26187.22516522  .00000463  00000+0  98724-4 0  9994
2 40376  98.1279 194.0501 0001526  97.8876 262.2499 14.63383934610406
KOMPSAT-3A              
1 40536U 15014A   26187.23201777  .00025669  00000+0  35674-3 0  9997
2 40536  97.6894 179.9994 0056978 107.1554 253.5949 15.55028330624774
SENTINEL-2A             
1 40697U 15028A   26187.30559495  .00000200  00000+0  92961-4 0  9998
2 40697  98.5675 261.8859 0001236  96.3492 263.7832 14.30821485576467
GAOFEN-8                
1 40701U 15030A   26187.30748300  .00009208  00000+0  18602-3 0  9998
2 40701  97.6904  21.8330 0009786 122.7938 237.4255 15.46686905614401
CARBONITE 1 (CBNT-1)    
1 40718U 15032D   26187.26927773  .00001274  00000+0  16028-3 0  9991
2 40718  97.6523   4.5376 0013179 228.0861 131.9231 14.83649641592177
YAOGAN-27               
1 40878U 15040A   26187.26182493 -.00000006  00000+0  96025-4 0  9998
2 40878 100.1165 172.8175 0008260 165.1500 194.9858 13.16070303520171
GAOFEN-9 01             
1 40894U 15047A   26187.29349868  .00000982  00000+0  12649-3 0  9998
2 40894  97.6267 222.1194 0028834  78.2922 282.1525 14.82922557583028
YAOGAN-28               
1 41026U 15064A   26187.31979575  .00006434  00000+0  24006-3 0  9990
2 41026  97.3100 325.1969 0011929 120.5214 239.7205 15.27679793593604
YAOGAN-29               
1 41038U 15069A   26187.27118068  .00000320  00000+0  45928-4 0  9990
2 41038  98.0018 215.9336 0001445  25.5586 334.5698 14.83101725573452
KENT RIDGE 1            
1 41167U 15077B   26187.15363829  .00004216  00000+0  14127-3 0  9990
2 41167  14.9788 124.9172 0008170 147.4678 212.6148 15.23248161583998
GAOFEN-4                
1 41194U 15083A   26187.02536502 -.00000321  00000+0  00000+0 0  9998
2 41194   0.4032  83.8443 0004131 116.1240 198.8874  1.00272443 38711
JASON-3                 
1 41240U 16002A   26187.26490291 -.00000022  00000+0  16024-3 0  9997
2 41240  66.0418  85.7279 0008285 271.6586  88.3483 12.87628158489704
ZIYUAN 3-02 (ZY 3-02)   
1 41556U 16033A   26187.26477628  .00004907  00000+0  22150-3 0  9992
2 41556  97.3825 262.6723 0013163 217.0951 142.9377 15.21374593560884
CARTOSAT-2C             
1 41599U 16040A   26187.29296434  .00003089  00000+0  14977-3 0  9992
2 41599  97.4469 247.0075 0010070  72.2654 287.9679 15.19218800556614
