OBJECT_NAME,OBJECT_ID,EPOCH,MEAN_MOTION,ECCENTRICITY,INCLINATION,RA_OF_ASC_NODE,ARG_OF_PERICENTER,MEAN_ANOMALY,EPHEMERIS_TYPE,CLASSIFICATION_TYPE,NORAD_CAT_ID,ELEMENT_SET_NO,REV_AT_EPOCH,BSTAR,MEAN_MOTION_DOT,MEAN_MOTION_DDOT
ALOS-2,2014-029A,2026-07-05T01:29:05.864352,14.79477316,.0001666,97.9228,282.9699,89.5658,270.5745,0,U,39766,999,65422,.80746E-4,.552E-5,0
KAZEOSAT 2,2014-033A,2026-07-06T07:01:44.515776,14.85491962,.00070663,97.5397,25.8940,255.2949,104.7484,0,U,40010,999,65179,.71240499E-4,.565E-5,0
HODOYOSHI-4,2014-033B,2026-07-06T06:20:51.327744,14.88175294,.00221722,97.5457,11.1661,240.7811,119.1189,0,U,40011,999,65164,.22745343E-3,.2053E-4,0
DEIMOS-2,2014-033D,2026-07-06T06:35:17.415168,14.93782569,.00011176,97.5800,61.0904,84.5295,275.6053,0,U,40013,999,64057,.13950419E-3,.1424E-4,0
HODOYOSHI-3,2014-033F,2026-07-05T23:30:09.538848,14.85425672,.00314148,97.6437,349.2655,293.7561,66.0361,0,U,40015,999,65041,.12818421E-3,.1061E-4,0
SPOT 7,2014-034A,2026-07-06T06:57:28.406304,14.60976976,.00015089,98.0614,249.2891,98.4807,261.6565,0,U,40053,999,63992,.16028176E-3,.74E-5,0
SKYSAT-B,2014-037D,2026-07-05T21:15:38.628864,14.88076911,.00047938,98.3847,146.9181,204.6990,155.3996,0,U,40072,999,64874,.16685044E-3,.1473E-4,0
WORLDVIEW-3 (WV-3),2014-048A,2026-07-06T07:16:35.209920,14.85054833,.0000584,97.8560,261.8718,167.2449,192.8781,0,U,40115,999,64474,.11499021E-3,.929E-5,0
GAOFEN-2,2014-049A,2026-07-06T07:08:56.304960,14.80922712,.00075991,98.0096,251.4868,160.4955,199.6550,0,U,40118,999,64206,.13531022E-3,.993E-5,0
YAOGAN-21,2014-053A,2026-07-06T07:17:06.645696,15.26680243,.00087739,97.1461,226.7207,37.5813,322.6038,0,U,40143,999,65787,.36913201E-3,.9632E-4,0
YAOGAN-22,2014-063A,2026-07-06T01:06:44.475840,13.15531483,.00067274,100.7750,338.6346,144.2970,215.8592,0,U,40275,999,56229,.62210717E-4,-.23E-6,0
ASNARO,2014-070A,2026-07-06T06:08:24.031680,15.19739649,.00068481,97.3442,262.8567,112.4208,247.7753,0,U,40298,999,64690,.33058965E-3,.7006E-4,0
YAOGAN-24,2014-072A,2026-07-06T07:59:22.108128,14.76109886,.00138951,98.1519,324.8333,198.4483,161.6224,0,U,40310,999,62654,.87591611E-4,.552E-5,0
CBERS 4,2014-079A,2026-07-06T06:35:52.599840,14.35514827,.00011677,98.3516,243.5072,51.5801,308.5490,0,U,40336,999,60669,.71735033E-4,.164E-5,0
YAOGAN-26,2014-088A,2026-07-06T06:30:12.380832,15.48178889,.00032234,97.0648,187.0421,19.6981,340.4395,0,U,40362,999,64065,.4965131E-3,.26074E-3,0
SMAP,2015-003A,2026-07-06T05:24:14.275008,14.63383934,.00015269,98.1279,194.0501,97.8876,262.2499,0,U,40376,999,61040,.98723825E-4,.463E-5,0
KOMPSAT-3A,2015-014A,2026-07-06T05:34:06.335328,15.55028330,.00569781,97.6894,179.9994,107.1554,253.5949,0,U,40536,999,62477,.35674169E-3,.25669E-3,0
SENTINEL-2A,2015-028A,2026-07-06T07:20:03.403680,14.30821485,.00012369,98.5675,261.8859,96.3492,263.7832,0,U,40697,999,57646,.92961366E-4,.2E-5,0
GAOFEN-8,2015-030A,2026-07-06T07:22:46.531200,15.46686905,.0009786,97.6904,21.8330,122.7938,237.4255,0,U,40701,999,61440,.18602485E-3,.9208E-4,0
CARBONITE 1 (CBNT-1),2015-032D,2026-07-06T06:27:45.595872,14.83649641,.00131795,97.6523,4.5376,228.0861,131.9231,0,U,40718,999,59217,.16027756E-3,.1274E-4,0
YAOGAN-27,2015-040A,2026-07-06T06:17:01.673952,13.16070303,.000826,100.1165,172.8175,165.1500,194.9858,0,U,40878,999,52017,.96024949E-4,-.6E-7,0
GAOFEN-9 01,2015-047A,2026-07-06T07:02:38.285952,14.82922557,.00288344,97.6267,222.1194,78.2922,282.1525,0,U,40894,999,58302,.12649004E-3,.982E-5,0
YAOGAN-28,2015-064A,2026-07-06T07:40:30.352800,15.27679793,.00119295,97.3100,325.1969,120.5214,239.7205,0,U,41026,999,59360,.24005752E-3,.6434E-4,0
YAOGAN-29,2015-069A,2026-07-06T06:30:30.010752,14.83101725,.00014455,98.0018,215.9336,25.5586,334.5698,0,U,41038,999,57345,.45927922E-4,.32E-5,0
KENT RIDGE 1,2015-077B,2026-07-06T03:41:14.348256,15.23248161,.00081703,14.9788,124.9172,147.4678,212.6148,0,U,41167,999,58399,.14126846E-3,.4216E-4,0
GAOFEN-4,2015-083A,2026-07-06T00:36:31.537728,1.00272443,.00041319,0.4032,83.8443,116.1240,198.8874,0,U,41194,999,3871,0,-.321E-5,0
JASON-3,2016-002A,2026-07-06T06:21:27.611424,12.87628158,.00082852,66.0418,85.7279,271.6586,88.3483,0,U,41240,999,48970,.16024485E-3,-.22E-6,0
SENTINEL-3A,2016-011A,2026-07-06T07:00:19.801440,14.26738105,.0001412,98.6241,254.4004,93.1880,266.9462,0,U,41335,999,54078,.61512371E-4,.105E-5,0
ZIYUAN 3-02 (ZY 3-02),2016-033A,2026-07-06T06:21:16.670592,15.21374593,.00131635,97.3825,262.6723,217.0951,142.9377,0,U,41556,999,56088,.22150441E-3,.4907E-4,0
CARTOSAT-2C,2016-040A,2026-07-06T07:01:52.118976,15.19218800,.00100708,97.4469,247.0075,72.2654,287.9679,0,U,41599,999,55661,.14977044E-3,.3089E-4,0
